ONEWEB-0650             
1 55813U 23029T   23255.25947264  .00000099  00000+0  21486-3 0  9995
2 55813  87.9266 145.7571 0002307  76.3157 283.8232 13.19723887 25827
ONEWEB-0652             
1 55814U 23029U   23255.56292021 -.00078245  00000+0 -17641+0 0  9998
2 55814  87.9445 130.4843 0002595 104.3257 255.8168 13.27199469 26855
ONEWEB-0653             
1 55815U 23029V   23255.57202431 -.00000012  00000+0 -57178-4 0  9997
2 55815  87.9428 130.4070 0004288  88.7104 271.4524 13.27249773 26883
ONEWEB-0654             
1 55816U 23029W   23255.38689055 -.00164282  00000+0 -38041+0 0  9991
2 55816  87.9450 130.5105 0000681 309.9579  50.1497 13.26048994 27564
ONEWEB-0656             
1 55817U 23029X   23255.58335648 -.01039325  00000+0 -52666+0 0  9999
2 55817  87.0606 118.4287 0003390  86.8005 129.8880 14.19529230  5735
ONEWEB-0657             
1 55818U 23029Y   23255.25474190  .00000053  00000+0  98872-4 0  9997
2 55818  87.9269 145.7615 0002006  45.1195 315.0100 13.19729103 25836
ONEWEB-0658             
1 55819U 23029Z   23255.24999222  .00000065  00000+0  13022-3 0  9991
2 55819  87.9252 145.7128 0002545  79.3407 280.8012 13.19729499 25841
ONEWEB-0660             
1 55820U 23029AA  23255.15764734  .00000107  00000+0  20686-3 0  9992
2 55820  87.9474 130.5225 0002945  97.9072 262.2399 13.27958376 26836
